NORAD_CAT_ID,OBJECT_NAME,OBJECT_TYPE,EPOCH,MEAN_MOTION,ECCENTRICITY,INCLINATION,RA_OF_ASC_NODE,ARG_OF_PERICENTER,MEAN_ANOMALY,BSTAR,MEAN_MOTION_DOT,MEAN_MOTION_DDOT,TLE_LINE0,TLE_LINE1,TLE_LINE2,SEMIMAJOR_AXIS,PERIOD,APOGEE,PERIGEE,DECAYED
54162.0,STARLINK-5273,PAYLOAD,2023-09-07 00:35:07,15.08847925,0.0001386,53.2167,160.2251,92.5353,267.5797,5.4053e-05,5.73e-06,0.0,0 STARLINK-5273,1 54162U 22141F   23250.02439458  .00000573  00000-0  54053-4 0  9991,2 54162  53.2167 160.2251 0001386  92.5353 267.5797 15.08847925 47638,6917.856,95.437,540.68,538.762,0.0
54162.0,STARLINK-5273,PAYLOAD,2023-09-07 03:45:53,15.08850962,0.0001629,53.2175,159.6305,94.9138,265.204,2.4777e-05,1.06e-06,0.0,0 STARLINK-5273,1 54162U 22141F   23250.15687320  .00000106  00000-0  24777-4 0  9990,2 54162  53.2175 159.6305 0001629  94.9138 265.2040 15.08850962 47659,6917.847,95.437,540.839,538.585,0.0
54162.0,STARLINK-5273,PAYLOAD,2023-09-07 18:04:22,15.08839597,0.000194,53.216,156.9515,103.8181,256.3027,8.2967e-06,-1.56e-06,0.0,0 STARLINK-5273,1 54162U 22141F   23250.75304008 -.00000156  00000-0  82967-5 0  9997,2 54162  53.2160 156.9515 0001940 103.8181 256.3027 15.08839597 47747,6917.882,95.438,541.089,538.405,0.0
54162.0,STARLINK-5273,PAYLOAD,2023-09-08 00:25:55,15.08839949,0.000191,53.2177,155.7639,97.3506,262.7704,2.5326e-05,1.15e-06,0.0,0 STARLINK-5273,1 54162U 22141F   23251.01799970  .00000115  00000-0  25326-4 0  9992,2 54162  53.2177 155.7639 0001910  97.3506 262.7704 15.08839949 47782,6917.881,95.438,541.067,538.424,0.0
54162.0,STARLINK-5273,PAYLOAD,2023-09-08 17:55:09,15.08843235,0.0001749,53.2186,152.4956,91.7154,268.4038,-5.9845e-05,-1.241e-05,0.0,0 STARLINK-5273,1 54162U 22141F   23251.74664246 -.00001241  00000-0 -59845-4 0  9995,2 54162  53.2186 152.4956 0001749  91.7154 268.4038 15.08843235 47893,6917.871,95.437,540.945,538.526,0.0
54162.0,STARLINK-5273,PAYLOAD,2023-09-09 00:16:42,15.08844238,0.0001491,53.2186,151.3085,96.2516,263.8646,-2.2603e-05,-6.48e-06,0.0,0 STARLINK-5273,1 54162U 22141F   23252.01159969 -.00000648  00000-0 -22603-4 0  9999,2 54162  53.2186 151.3085 0001491  96.2516 263.8646 15.08844238 47933,6917.867,95.437,540.764,538.701,0.0
54162.0,STARLINK-5273,PAYLOAD,2023-09-09 09:49:00,15.08840737,0.000151,53.2166,149.5193,96.2116,263.9048,5.762e-05,6.29e-06,0.0,0 STARLINK-5273,1 54162U 22141F   23252.40903875  .00000629  00000-0  57620-4 0  9999,2 54162  53.2166 149.5193 0001510  96.2116 263.9048 15.08840737 47991,6917.878,95.438,540.788,538.699,0.0
54162.0,STARLINK-5273,PAYLOAD,2023-09-09 17:45:57,15.08833005,0.0001462,53.2177,148.0348,94.9105,265.2054,1.0587e-05,-1.19e-06,0.0,0 STARLINK-5273,1 54162U 22141F   23252.74024701 -.00000119  00000-0  10587-4 0  9994,2 54162  53.2177 148.0348 0001462  94.9105 265.2054 15.08833005 48047,6917.902,95.438,540.778,538.755,0.0
54162.0,STARLINK-5273,PAYLOAD,2023-09-10 00:07:29,15.08838849,0.0001448,53.2182,146.8477,98.3974,261.7182,6.9604e-05,8.2e-06,0.0,0 STARLINK-5273,1 54162U 22141F   23253.00520221  .00000820  00000-0  69604-4 0  9994,2 54162  53.2182 146.8477 0001448  98.3974 261.7182 15.08838849 48086,6917.884,95.438,540.751,538.747,0.0
54162.0,STARLINK-5273,PAYLOAD,2023-09-11 09:30:35,15.08840305,0.0001241,53.2172,140.5998,89.5033,270.6101,4.1212e-05,3.68e-06,0.0,0 STARLINK-5273,1 54162U 22141F   23254.39624551  .00000368  00000-0  41212-4 0  9990,2 54162  53.2172 140.5998 0001241  89.5033 270.6101 15.08840305 48296,6917.879,95.438,540.603,538.886,0.0
54162.0,STARLINK-5273,PAYLOAD,2023-09-12 01:24:26,15.08841392,0.0001317,53.2177,137.6261,73.1518,286.9619,9.2853e-05,1.19e-05,0.0,0 STARLINK-5273,1 54162U 22141F   23255.05864561  .00001190  00000-0  92853-4 0  9992,2 54162  53.2177 137.6261 0001317  73.1518 286.9619 15.08841392 48394,6917.876,95.437,540.652,538.83,0.0
54162.0,STARLINK-5273,PAYLOAD,2023-09-12 20:29:04,15.0884271,0.000138,53.2169,134.0578,91.2516,268.8634,6.6712e-05,7.74e-06,0.0,0 STARLINK-5273,1 54162U 22141F   23255.85352600  .00000774  00000-0  66712-4 0  9998,2 54162  53.2169 134.0578 0001380  91.2516 268.8634 15.08842710 48511,6917.872,95.437,540.692,538.782,0.0
54162.0,STARLINK-5273,PAYLOAD,2023-09-12 23:39:50,15.08844975,0.0001282,53.2172,133.4637,86.7377,273.3762,0.00012132,1.644e-05,0.0,0 STARLINK-5273,1 54162U 22141F   23255.98600310  .00001644  00000-0  12132-3 0  9999,2 54162  53.2172 133.4637 0001282  86.7377 273.3762 15.08844975 48539,6917.865,95.437,540.617,538.843,0.0
54162.0,STARLINK-5273,PAYLOAD,2023-09-13 21:55:14,15.08848094,0.0001159,53.2171,129.3002,96.7942,263.3182,3.3976e-05,2.53e-06,0.0,0 STARLINK-5273,1 54162U 22141F   23256.91336115  .00000253  00000-0  33976-4 0  9997,2 54162  53.2171 129.3002 0001159  96.7942 263.3182 15.08848094 48676,6917.856,95.437,540.522,538.919,0.0
54162.0,STARLINK-5273,PAYLOAD,2023-09-14 01:06:00,15.08849063,0.0001259,53.2174,128.7052,97.6625,262.4511,0.00011109,1.481e-05,0.0,0 STARLINK-5273,1 54162U 22141F   23257.04583881  .00001481  00000-0  11109-3 0  9993,2 54162  53.2174 128.7052 0001259  97.6625 262.4511 15.08849063 48691,6917.853,95.437,540.589,538.847,0.0
54162.0,STARLINK-5273,PAYLOAD,2023-09-14 18:35:16,15.0883804,0.0001324,53.2172,125.4356,91.0187,269.0957,-1.2858e-05,-4.93e-06,0.0,0 STARLINK-5273,1 54162U 22141F   23257.77449095 -.00000493  00000-0 -12858-4 0  9998,2 54162  53.2172 125.4356 0001324  91.0187 269.0957 15.08838040 48807,6917.886,95.438,540.667,538.835,0.0
54162.0,STARLINK-5273,PAYLOAD,2023-09-14 21:46:02,15.08839158,0.0001328,53.2172,124.8412,88.5228,271.5916,-1.5826e-05,-5.4e-06,0.0,0 STARLINK-5273,1 54162U 22141F   23257.90697012 -.00000540  00000-0 -15826-4 0  9998,2 54162  53.2172 124.8412 0001328  88.5228 271.5916 15.08839158 48820,6917.883,95.438,540.667,538.829,0.0
54162.0,STARLINK-5273,PAYLOAD,2023-09-15 18:26:02,15.08845265,0.0001186,53.2165,120.9753,86.8458,273.267,3.2362e-05,2.27e-06,0.0,0 STARLINK-5273,1 54162U 22141F   23258.76808537  .00000227  00000-0  32362-4 0  9993,2 54162  53.2165 120.9753 0001186  86.8458 273.2670 15.08845265 48951,6917.864,95.437,540.55,538.909,0.0
54162.0,STARLINK-5273,PAYLOAD,2023-09-16 00:47:34,15.08850336,0.0001245,53.2173,119.7847,94.3818,265.7317,0.00010193,1.335e-05,0.0,0 STARLINK-5273,1 54162U 22141F   23259.03303959  .00001335  00000-0  10193-3 0  9990,2 54162  53.2173 119.7847 0001245  94.3818 265.7317 15.08850336 48993,6917.849,95.437,540.575,538.853,0.0
54162.0,STARLINK-5273,PAYLOAD,2023-09-16 18:16:51,15.087703,0.0001683,53.2179,116.5143,93.0915,267.027,0.00093814,0.00014646,0.0,0 STARLINK-5273,1 54162U 22141F   23259.76170366  .00014646  00000-0  93814-3 0  9994,2 54162  53.2179 116.5143 0001683  93.0915 267.0270 15.08770300 49102,6918.093,95.442,541.123,538.794,0.0
54162.0,STARLINK-5273,PAYLOAD,2023-09-16 23:02:59,15.08836884,0.0001274,53.2171,115.622,88.8061,271.3077,7.7193e-05,9.41e-06,0.0,0 STARLINK-5273,1 54162U 22141F   23259.96041198  .00000941  00000-0  77193-4 0  9992,2 54162  53.2171 115.6220 0001274  88.8061 271.3077 15.08836884 49136,6917.89,95.438,540.636,538.874,0.0
54162.0,STARLINK-5273,PAYLOAD,2023-09-17 22:53:45,15.08851762,0.0001235,53.2171,111.1621,89.5228,270.5906,0.00010285,1.35e-05,0.0,0 STARLINK-5273,1 54162U 22141F   23260.95400401  .00001350  00000-0  10285-3 0  9992,2 54162  53.2171 111.1621 0001235  89.5228 270.5906 15.08851762 49282,6917.844,95.437,540.564,538.855,0.0
54162.0,STARLINK-5273,PAYLOAD,2023-09-18 17:58:24,15.08834486,0.0001284,53.2173,107.5935,85.4668,274.6471,7.0175e-05,8.29e-06,0.0,0 STARLINK-5273,1 54162U 22141F   23261.74889657  .00000829  00000-0  70175-4 0  9999,2 54162  53.2173 107.5935 0001284  85.4668 274.6471 15.08834486 49408,6917.897,95.438,540.651,538.874,0.0
54162.0,STARLINK-5273,PAYLOAD,2023-09-18 21:09:10,15.08842063,0.0001284,53.2171,106.9992,78.3237,281.7899,0.00012546,1.709e-05,0.0,0 STARLINK-5273,1 54162U 22141F   23261.88137155  .00001709  00000-0  12546-3 0  9998,2 54162  53.2171 106.9992 0001284  78.3237 281.7899 15.08842063 49420,6917.874,95.437,540.627,538.851,0.0
54162.0,STARLINK-5273,PAYLOAD,2023-09-19 00:19:56,15.08846029,0.0001164,53.2167,106.4037,89.8638,270.2487,0.00016194,2.291e-05,0.0,0 STARLINK-5273,1 54162U 22141F   23262.01384797  .00002291  00000-0  16194-3 0  9990,2 54162  53.2167 106.4037 0001164  89.8638 270.2487 15.08846029 49443,6917.862,95.437,540.532,538.922,0.0
54162.0,STARLINK-5273,PAYLOAD,2023-09-20 00:10:42,15.08853863,0.0001144,53.2156,101.9429,87.6915,272.4209,0.00019084,2.752e-05,0.0,0 STARLINK-5273,1 54162U 22141F   23263.00744129  .00002752  00000-0  19084-3 0  9992,2 54162  53.2156 101.9429 0001144  87.6915 272.4209 15.08853863 49594,6917.838,95.437,540.494,538.912,0.0
54162.0,STARLINK-5273,PAYLOAD,2023-09-20 19:15:21,15.08830051,0.0001274,53.2156,98.3746,81.8411,278.2726,-0.00010102,-1.895e-05,0.0,0 STARLINK-5273,1 54162U 22141F   23263.80233691 -.00001895  00000-0 -10102-3 0  9998,2 54162  53.2156  98.3746 0001274  81.8411 278.2726 15.08830051 49712,6917.911,95.438,540.657,538.894,0.0
54162.0,STARLINK-5273,PAYLOAD,2023-09-20 20:50:45,15.08830301,0.0001358,53.2162,98.0784,80.9005,279.2141,-7.7122e-05,-1.515e-05,0.0,0 STARLINK-5273,1 54162U 22141F   23263.86857778 -.00001515  00000-0 -77122-4 0  9997,2 54162  53.2162  98.0784 0001358  80.9005 279.2141 15.08830301 49721,6917.91,95.438,540.714,538.836,0.0
54162.0,STARLINK-5273,PAYLOAD,2023-09-21 12:44:36,15.08837724,0.000135,53.217,95.1038,93.2902,266.8245,0.00011928,1.611e-05,0.0,0 STARLINK-5273,1 54162U 22141F   23264.53097875  .00001611  00000-0  11928-3 0  9992,2 54162  53.2170  95.1038 0001350  93.2902 266.8245 15.08837724 49829,6917.887,95.438,540.686,538.818,0.0
54162.0,STARLINK-5273,PAYLOAD,2023-09-21 19:06:08,15.08846872,0.0001368,53.2166,93.9152,78.1935,281.9211,0.00019465,2.812e-05,0.0,0 STARLINK-5273,1 54162U 22141F   23264.79593529  .00002812  00000-0  19465-3 0  9995,2 54162  53.2166  93.9152 0001368  78.1935 281.9211 15.08846872 49863,6917.859,95.437,540.671,538.778,0.0
